SKYSAT-A                
1 39418U 13066C   26204.10142997  .00002435  00000+0  14029-3 0  9990
2 39418  97.3796 252.3539 0021215 185.3381 174.7628 15.13146983693911
SKYSAT-B                
1 40072U 14037D   26202.62025596  .00000881  00000+0  10248-3 0  9999
2 40072  98.3858 163.5543 0006020 153.0763 207.0765 14.88102443651088
SKYSAT-C1               
1 41601U 16040C   26204.03334042  .00009412  00000+0  26337-3 0  9995
2 41601  96.9557 233.8198 0000977 185.7159 174.4075 15.36845504563371
SKYSAT-C4               
1 41771U 16058B   26204.05312085  .00019147  00000+0  34723-3 0  9991
2 41771  96.9177 224.3470 0003562 108.3009 251.8631 15.49634823551024
SKYSAT-C5               
1 41772U 16058C   26204.10558117  .00007252  00000+0  22409-3 0  9998
2 41772  97.0456 243.1260 0003402 142.5858 217.5623 15.33797689549253
SKYSAT-C2               
1 41773U 16058D   26204.32921844  .00012159  00000+0  27930-3 0  9990
2 41773  97.0165 225.0801 0000661 273.3925  86.7248 15.42821230550625
SKYSAT-C3               
1 41774U 16058E   26204.02665170  .00025552  00000+0  39629-3 0  9994
2 41774  96.9002 233.5269 0002888 123.8234 236.3296 15.53977740551673
SKYSAT-C11              
1 42987U 17068A   26203.68512260  .00031225  00000+0  39233-3 0  9990
2 42987  97.4384 354.1178 0001506 150.3189 209.8153 15.59645696488773
SKYSAT-C10              
1 42988U 17068B   26203.82158753  .00011170  00000+0  32886-3 0  9994
2 42988  97.4541 341.0397 0001544 109.9336 250.2073 15.35228657487827
SKYSAT-C9               
1 42989U 17068C   26204.31978232  .00012642  00000+0  29466-3 0  9997
2 42989  97.4460 342.8295 0007944  17.0072 343.1440 15.42362279488323
SKYSAT-C8               
1 42990U 17068D   26204.32382803  .00010428  00000+0  28469-3 0  9995
2 42990  97.4557 341.4865 0001312 107.4214 252.7174 15.37611068487869
SKYSAT-C7               
1 42991U 17068E   26204.31857239  .00010274  00000+0  28091-3 0  9995
2 42991  97.4568 342.4736 0004958 351.7605   8.3557 15.37559306487920
SKYSAT-C6               
1 42992U 17068F   26204.08490242  .00010024  00000+0  30439-3 0  9999
2 42992  97.4607 342.0542 0004812  69.2184 290.9574 15.34270039487825
SKYSAT-C12              
1 43797U 18099AR  26204.06619602  .00019581  00000+0  35059-3 0  9999
2 43797  96.9256 225.8847 0004657  53.2214 306.9466 15.49990549427411
